STARLINK-3950           
1 53264U 22086Y   26068.60658749 -.00000096  00000+0  12050-4 0  9992
2 53264  53.2182 194.4956 0001218  91.7497 268.3634 15.08840060201052
STARLINK-5895           
1 55964U 23037BC  26068.93316413  .00010921  00000+0  72850-3 0  9993
2 55964  69.9972 260.0280 0004986 264.4993  95.5602 15.07243555164606
