[{"OBJECT_NAME":"STARLINK-3950","OBJECT_ID":"2022-086Y","EPOCH":"2026-03-09T14:33:29.159136","MEAN_MOTION":15.0884006,"ECCENTRICITY":0.0001218,"INCLINATION":53.2182,"RA_OF_ASC_NODE":194.4956,"ARG_OF_PERICENTER":91.7497,"MEAN_ANOMALY":268.3634,"EPHEMERIS_TYPE":0,"CLASSIFICATION_TYPE":"U","NORAD_CAT_ID":53264,"ELEMENT_SET_NO":999,"REV_AT_EPOCH":20105,"BSTAR":1.205e-5,"MEAN_MOTION_DOT":-9.6e-7,"MEAN_MOTION_DDOT":0},{"OBJECT_NAME":"STARLINK-5895","OBJECT_ID":"2023-037BC","EPOCH":"2026-03-09T22:23:45.381696","MEAN_MOTION":15.07243555,"ECCENTRICITY":0.00049855,"INCLINATION":69.9972,"RA_OF_ASC_NODE":260.028,"ARG_OF_PERICENTER":264.4993,"MEAN_ANOMALY":95.5602,"EPHEMERIS_TYPE":0,"CLASSIFICATION_TYPE":"U","NORAD_CAT_ID":55964,"ELEMENT_SET_NO":999,"REV_AT_EPOCH":16460,"BSTAR":0.00072849946,"MEAN_MOTION_DOT":0.00010921,"MEAN_MOTION_DDOT":0}]
